{"type": "FeatureCollection", "features": [ {"type": "Feature", "properties": {"norad_id": 40664, "name": "SKY MEXICO-1", "group": "intelsat", "lat": -0.033053304235098564, "lon": -63.3642263024566, "alt_km": 35775.386599714875, "timestamp": "2025-12-26T18:39:31.940258+00:00", "meta": {"OBJECT_NAME": "SKY MEXICO-1", "OBJECT_ID": "2015-026B", "EPOCH": "2025-12-26T12:33:56.173248", "MEAN_MOTION": 1.00272266, "ECCENTRICITY": 0.00025283, "INCLINATION": 0.0148, "RA_OF_ASC_NODE": 16.6993, "ARG_OF_PERICENTER": 271.8752, "MEAN_ANOMALY": 276.4147, "EPHEMERIS_TYPE": 0, "CLASSIFICATION_TYPE": "U", "NORAD_CAT_ID": 40664, "ELEMENT_SET_NO": 999, "REV_AT_EPOCH": 3872, "BSTAR": 0, "MEAN_MOTION_DOT": -2.13e-06, "MEAN_MOTION_DDOT": 0}, "tle": {"line1": "1 40664U 15026B   25360.52356682 -.00000213  00000+0  00000+0 0  9992", "line2": "2 40664   0.0148  16.6993 0002528 271.8752 276.4147  1.00272266 38725"}}, "geometry": {"type": "Point", "coordinates": [-63.3642263024566, -0.033053304235098564]}}, {"type": "Feature", "properties": {"norad_id": 40874, "name": "INTELSAT 34 (IS-34)", "group": "intelsat", "lat": -0.016122275805175553, "lon": -40.11584155850939, "alt_km": 35788.82905436618, "timestamp": "2025-12-26T18:39:31.940270+00:00", "meta": {"OBJECT_NAME": "INTELSAT 34 (IS-34)", "OBJECT_ID": "2015-039A", "EPOCH": "2025-12-26T01:50:17.564352", "MEAN_MOTION": 1.00269247, "ECCENTRICITY": 5.15e-05, "INCLINATION": 0.0147, "RA_OF_ASC_NODE": 340.5004, "ARG_OF_PERICENTER": 185.0401, "MEAN_ANOMALY": 261.3543, "EPHEMERIS_TYPE": 0, "CLASSIFICATION_TYPE": "U", "NORAD_CAT_ID": 40874, "ELEMENT_SET_NO": 999, "REV_AT_EPOCH": 3788, "BSTAR": 0, "MEAN_MOTION_DOT": -2.64e-06, "MEAN_MOTION_DDOT": 0}, "tle": {"line1": "1 40874U 15039A   25360.07659218 -.00000264  00000+0  00000+0 0  9996", "line2": "2 40874   0.0147 340.5004 0000515 185.0401 261.3543  1.00269247 37884"}}, "geometry": {"type": "Point", "coordinates": [-40.11584155850939, -0.016122275805175553]}}, {"type": "Feature", "properties": {"norad_id": 41581, "name": "INTELSAT 31 (IS-31)", "group": "intelsat", "lat": -0.010550934561623659, "lon": -79.66822007906818, "alt_km": 35784.64567913046, "timestamp": "2025-12-26T18:39:31.940282+00:00", "meta": {"OBJECT_NAME": "INTELSAT 31 (IS-31)", "OBJECT_ID": "2016-035A", "EPOCH": "2025-12-23T19:31:44.703840", "MEAN_MOTION": 1.00269658, "ECCENTRICITY": 0.0001926, "INCLINATION": 0.0283, "RA_OF_ASC_NODE": 262.055, "ARG_OF_PERICENTER": 303.365, "MEAN_ANOMALY": 85.0534, "EPHEMERIS_TYPE": 0, "CLASSIFICATION_TYPE": "U", "NORAD_CAT_ID": 41581, "ELEMENT_SET_NO": 999, "REV_AT_EPOCH": 3492, "BSTAR": 0, "MEAN_MOTION_DOT": -1.29e-06, "MEAN_MOTION_DDOT": 0}, "tle": {"line1": "1 41581U 16035A   25357.81371185 -.00000129  00000+0  00000+0 0  9991", "line2": "2 41581   0.0283 262.0550 0001926 303.3650  85.0534  1.00269658 34922"}}, "geometry": {"type": "Point", "coordinates": [-79.66822007906818, -0.010550934561623659]}}, {"type": "Feature", "properties": {"norad_id": 41747, "name": "INTELSAT 36 (IS-36)", "group": "intelsat", "lat": 0.03004449160090024, "lon": 83.89499099156038, "alt_km": 35788.678010058095, "timestamp": "2025-12-26T18:39:31.940294+00:00", "meta": {"OBJECT_NAME": "INTELSAT 36 (IS-36)", "OBJECT_ID": "2016-053A", "EPOCH": "2025-12-24T23:41:40.191072", "MEAN_MOTION": 1.00271078, "ECCENTRICITY": 0.00011962, "INCLINATION": 0.0114, "RA_OF_ASC_NODE": 13.9545, "ARG_OF_PERICENTER": 310.844, "MEAN_ANOMALY": 192.8649, "EPHEMERIS_TYPE": 0, "CLASSIFICATION_TYPE": "U", "NORAD_CAT_ID": 41747, "ELEMENT_SET_NO": 999, "REV_AT_EPOCH": 3420, "BSTAR": 0, "MEAN_MOTION_DOT": -3e-08, "MEAN_MOTION_DDOT": 0}, "tle": {"line1": "1 41747U 16053A   25358.98727073 -.00000003  00000+0  00000+0 0  9996", "line2": "2 41747   0.0114  13.9545 0001196 310.8440 192.8649  1.00271078 34209"}}, "geometry": {"type": "Point", "coordinates": [83.89499099156038, 0.03004449160090024]}}, {"type": "Feature", "properties": {"norad_id": 41945, "name": "INTELSAT 32E (IS-32E)", "group": "intelsat", "lat": -0.037003630348696345, "lon": -27.79790556929757, "alt_km": 35785.2519534761, "timestamp": "2025-12-26T18:39:31.940306+00:00", "meta": {"OBJECT_NAME": "INTELSAT 32E (IS-32E)", "OBJECT_ID": "2017-007B", "EPOCH": "2025-12-26T02:09:38.712960", "MEAN_MOTION": 1.00269449, "ECCENTRICITY": 5.303e-05, "INCLINATION": 0.0279, "RA_OF_ASC_NODE": 75.1981, "ARG_OF_PERICENTER": 302.3368, "MEAN_ANOMALY": 66.5353, "EPHEMERIS_TYPE": 0, "CLASSIFICATION_TYPE": "U", "NORAD_CAT_ID": 41945, "ELEMENT_SET_NO": 999, "REV_AT_EPOCH": 3248, "BSTAR": 0, "MEAN_MOTION_DOT": -2.47e-06, "MEAN_MOTION_DDOT": 0}, "tle": {"line1": "1 41945U 17007B   25360.09003140 -.00000247  00000+0  00000+0 0  9993", "line2": "2 41945   0.0279  75.1981 0000530 302.3368  66.5353  1.00269449 32487"}}, "geometry": {"type": "Point", "coordinates": [-27.79790556929757, -0.037003630348696345]}}, {"type": "Feature", "properties": {"norad_id": 42818, "name": "INTELSAT 35E (IS-35E)", "group": "intelsat", "lat": -0.024895807109863544, "lon": -19.116675012612184, "alt_km": 35783.00809460581, "timestamp": "2025-12-26T18:39:31.940318+00:00", "meta": {"OBJECT_NAME": "INTELSAT 35E (IS-35E)", "OBJECT_ID": "2017-041A", "EPOCH": "2025-12-24T19:47:02.663232", "MEAN_MOTION": 1.00269135, "ECCENTRICITY": 0.0001994, "INCLINATION": 0.0182, "RA_OF_ASC_NODE": 26.5073, "ARG_OF_PERICENTER": 252.5399, "MEAN_ANOMALY": 76.7961, "EPHEMERIS_TYPE": 0, "CLASSIFICATION_TYPE": "U", "NORAD_CAT_ID": 42818, "ELEMENT_SET_NO": 999, "REV_AT_EPOCH": 3106, "BSTAR": 0, "MEAN_MOTION_DOT": -2.17e-06, "MEAN_MOTION_DDOT": 0}, "tle": {"line1": "1 42818U 17041A   25358.82433638 -.00000217  00000+0  00000+0 0  9995", "line2": "2 42818   0.0182  26.5073 0001994 252.5399  76.7961  1.00269135 31060"}}, "geometry": {"type": "Point", "coordinates": [-19.116675012612184, -0.024895807109863544]}}, {"type": "Feature", "properties": {"norad_id": 42950, "name": "INTELSAT 37E (IS-37E)", "group": "intelsat", "lat": -0.01530705022079808, "lon": -2.560485026726106, "alt_km": 35787.09061947439, "timestamp": "2025-12-26T18:39:31.940330+00:00", "meta": {"OBJECT_NAME": "INTELSAT 37E (IS-37E)", "OBJECT_ID": "2017-059A", "EPOCH": "2025-12-26T09:31:23.748096", "MEAN_MOTION": 1.00271484, "ECCENTRICITY": 0.00031131, "INCLINATION": 0.0188, "RA_OF_ASC_NODE": 27.9714, "ARG_OF_PERICENTER": 235.3968, "MEAN_ANOMALY": 316.6339, "EPHEMERIS_TYPE": 0, "CLASSIFICATION_TYPE": "U", "NORAD_CAT_ID": 42950, "ELEMENT_SET_NO": 999, "REV_AT_EPOCH": 3033, "BSTAR": 0, "MEAN_MOTION_DOT": -1.19e-06, "MEAN_MOTION_DDOT": 0}, "tle": {"line1": "1 42950U 17059A   25360.39680264 -.00000119  00000+0  00000+0 0  9996", "line2": "2 42950   0.0188  27.9714 0003113 235.3968 316.6339  1.00271484 30330"}}, "geometry": {"type": "Point", "coordinates": [-2.560485026726106, -0.01530705022079808]}}, {"type": "Feature", "properties": {"norad_id": 43632, "name": "AZERSPACE 2 (IS-38)", "group": "intelsat", "lat": 0.02665389814350935, "lon": 60.50485378165062, "alt_km": 35790.664513556796, "timestamp": "2025-12-26T18:39:31.940341+00:00", "meta": {"OBJECT_NAME": "AZERSPACE 2 (IS-38)", "OBJECT_ID": "2018-074A", "EPOCH": "2025-12-25T14:59:23.620416", "MEAN_MOTION": 1.00271088, "ECCENTRICITY": 0.0001362, "INCLINATION": 0.0173, "RA_OF_ASC_NODE": 17.3718, "ARG_OF_PERICENTER": 261.2913, "MEAN_ANOMALY": 85.6698, "EPHEMERIS_TYPE": 0, "CLASSIFICATION_TYPE": "U", "NORAD_CAT_ID": 43632, "ELEMENT_SET_NO": 999, "REV_AT_EPOCH": 2670, "BSTAR": 0, "MEAN_MOTION_DOT": 1.58e-06, "MEAN_MOTION_DDOT": 0}, "tle": {"line1": "1 43632U 18074A   25359.62457894  .00000158  00000+0  00000+0 0  9999", "line2": "2 43632   0.0173  17.3718 0001362 261.2913  85.6698  1.00271088 26708"}}, "geometry": {"type": "Point", "coordinates": [60.50485378165062, 0.02665389814350935]}}, {"type": "Feature", "properties": {"norad_id": 43633, "name": "HORIZONS-3E", "group": "intelsat", "lat": -0.002717937199394607, "lon": -175.61191937570092, "alt_km": 35789.18394612146, "timestamp": "2025-12-26T18:39:31.940353+00:00", "meta": {"OBJECT_NAME": "HORIZONS-3E", "OBJECT_ID": "2018-074B", "EPOCH": "2025-12-26T11:04:38.607744", "MEAN_MOTION": 1.00269006, "ECCENTRICITY": 7.664e-05, "INCLINATION": 0.0435, "RA_OF_ASC_NODE": 189.5471, "ARG_OF_PERICENTER": 131.2323, "MEAN_ANOMALY": 109.5915, "EPHEMERIS_TYPE": 0, "CLASSIFICATION_TYPE": "U", "NORAD_CAT_ID": 43633, "ELEMENT_SET_NO": 999, "REV_AT_EPOCH": 2660, "BSTAR": 0, "MEAN_MOTION_DOT": -9e-08, "MEAN_MOTION_DDOT": 0}, "tle": {"line1": "1 43633U 18074B   25360.46155796 -.00000009  00000+0  00000+0 0  9996", "line2": "2 43633   0.0435 189.5471 0000766 131.2323 109.5915  1.00269006 26600"}}, "geometry": {"type": "Point", "coordinates": [-175.61191937570092, -0.002717937199394607]}}, {"type": "Feature", "properties": {"norad_id": 44333, "name": "AT&T T-16", "group": "intelsat", "lat": -0.023120742353472792, "lon": -85.43508758198244, "alt_km": 35783.7139684706, "timestamp": "2025-12-26T18:39:31.940364+00:00", "meta": {"OBJECT_NAME": "AT&T T-16", "OBJECT_ID": "2019-034A", "EPOCH": "2025-12-26T09:24:01.438848", "MEAN_MOTION": 1.00280007, "ECCENTRICITY": 9.592e-05, "INCLINATION": 0.0209, "RA_OF_ASC_NODE": 69.0211, "ARG_OF_PERICENTER": 116.5883, "MEAN_ANOMALY": 309.683, "EPHEMERIS_TYPE": 0, "CLASSIFICATION_TYPE": "U", "NORAD_CAT_ID": 44333, "ELEMENT_SET_NO": 999, "REV_AT_EPOCH": 2390, "BSTAR": 0, "MEAN_MOTION_DOT": -9.5e-07, "MEAN_MOTION_DDOT": 0}, "tle": {"line1": "1 44333U 19034A   25360.39168332 -.00000095  00000+0  00000+0 0  9998", "line2": "2 44333   0.0209  69.0211 0000959 116.5883 309.6830  1.00280007 23905"}}, "geometry": {"type": "Point", "coordinates": [-85.43508758198244, -0.023120742353472792]}}]}